CCSDS_OEM_VERS = 2.0
CREATION_DATE = 2026-03-17T15:30:00.000
ORIGINATOR = KEPLER-QAN
META_START
OBJECT_NAME = DEMO-SAT-4
OBJECT_ID = 2026-000D
CENTER_NAME = EARTH
REF_FRAME = EME2000
TIME_SYSTEM = UTC
META_STOP
2026-03-17T15:30:00.000 7150 25 7 0.03 7.47 0.02
